start=new Date('2022-06-13T00:00:00.000Z').valueOf();
sats=[{"NORAD_CAT_ID":"52102","ECCENTRICITY":"0.00018250","EPHEMERIS_TYPE":"0","TLE_LINE1":"1 52102U 22029Q   22163.91667824 -.00583896  00000-0 -34394-1 0  9997","OBJECT_ID":"2022-029Q","LAUNCH_DATE":"2022-03-19","PERIAPSIS":"523.940","SEMIMAJOR_AXIS":"6903.335","INCLINATION":"53.2174","REV_AT_EPOCH":"130","TIME_SYSTEM":"UTC","REF_FRAME":"TEME","RCS_SIZE":"LARGE","OBJECT_NAME":"STARLINK-3709","ARG_OF_PERICENTER":"42.5182","MEAN_MOTION_DOT":"-0.00583896","OBJECT_TYPE":"PAYLOAD","CLASSIFICATION_TYPE":"U","TLE_LINE2":"2 52102  53.2174  90.3613 0001825  42.5182 231.9055 15.13611201  1304","MEAN_ELEMENT_THEORY":"SGP4","FILE":"3493781","BSTAR":"-0.03439400000000","PERIOD":"95.137","MEAN_ANOMALY":"231.9055","MEAN_MOTION_DDOT":"0.0000000000000","CENTER_NAME":"EARTH","APOAPSIS":"526.460","RA_OF_ASC_NODE":"90.3613","MEAN_MOTION":"15.13611201","GP_ID":"206018225","COUNTRY_CODE":"US","SITE":"AFETR","EPOCH":"2022-06-12T22:00:00.999936","ELEMENT_SET_NO":"999","DECAY_DATE":null},{"SEMIMAJOR_AXIS":"6917.788","TLE_LINE1":"1 52103U 22029R   22163.91667824 -.00020529  00000-0 -12743-2 0  9992","PERIAPSIS":"538.306","LAUNCH_DATE":"2022-03-19","OBJECT_ID":"2022-029R","ECCENTRICITY":"0.00019470","EPHEMERIS_TYPE":"0","NORAD_CAT_ID":"52103","MEAN_MOTION_DOT":"-0.00020529","ARG_OF_PERICENTER":"54.7004","OBJECT_TYPE":"PAYLOAD","CLASSIFICATION_TYPE":"U","OBJECT_NAME":"STARLINK-3705","RCS_SIZE":"LARGE","INCLINATION":"53.2157","REF_FRAME":"TEME","TIME_SYSTEM":"UTC","REV_AT_EPOCH":"130","MEAN_MOTION":"15.08870348","RA_OF_ASC_NODE":"90.3166","APOAPSIS":"541.000","MEAN_ANOMALY":"38.1296","PERIOD":"95.436","BSTAR":"-0.00127430000000","CENTER_NAME":"EARTH","MEAN_MOTION_DDOT":"0.0000000000000","TLE_LINE2":"2 52103  53.2157  90.3166 0001947  54.7004  38.1296 15.08870348  1309","FILE":"3493781","MEAN_ELEMENT_THEORY":"SGP4","DECAY_DATE":null,"ELEMENT_SET_NO":"999","EPOCH":"2022-06-12T22:00:00.999936","SITE":"AFETR","GP_ID":"206017567","COUNTRY_CODE":"US"},{"COUNTRY_CODE":"US","GP_ID":"206018124","SITE":"AFETR","ELEMENT_SET_NO":"999","EPOCH":"2022-06-12T22:00:00.999936","DECAY_DATE":null,"TLE_LINE2":"2 52105  53.2169  90.3077 0001862  45.7952  81.8651 15.08714080  1303","MEAN_ELEMENT_THEORY":"SGP4","FILE":"3493781","PERIOD":"95.446","MEAN_ANOMALY":"81.8651","BSTAR":"0.01220600000000","MEAN_MOTION_DDOT":"0.0000000000000","CENTER_NAME":"EARTH","APOAPSIS":"541.418","RA_OF_ASC_NODE":"90.3077","MEAN_MOTION":"15.08714080","INCLINATION":"53.2169","TIME_SYSTEM":"UTC","REV_AT_EPOCH":"130","REF_FRAME":"TEME","RCS_SIZE":"LARGE","OBJECT_NAME":"STARLINK-3706","ARG_OF_PERICENTER":"45.7952","MEAN_MOTION_DOT":"0.00198819","OBJECT_TYPE":"PAYLOAD","CLASSIFICATION_TYPE":"U","NORAD_CAT_ID":"52105","ECCENTRICITY":"0.00018620","EPHEMERIS_TYPE":"0","TLE_LINE1":"1 52105U 22029T   22163.91667824  .00198819  00000-0  12206-1 0  9993","PERIAPSIS":"538.842","LAUNCH_DATE":"2022-03-19","OBJECT_ID":"2022-029T","SEMIMAJOR_AXIS":"6918.265"},{"CENTER_NAME":"EARTH","MEAN_MOTION_DDOT":"0.0000000000000","PERIOD":"95.436","MEAN_ANOMALY":"308.8410","BSTAR":"-0.00326090000000","FILE":"3493781","MEAN_ELEMENT_THEORY":"SGP4","TLE_LINE2":"2 52106  53.2178 100.2974 0001650  69.0964 308.8410 15.08864132  1307","MEAN_MOTION":"15.08864132","RA_OF_ASC_NODE":"100.2974","APOAPSIS":"540.813","SITE":"AFETR","GP_ID":"206018018","COUNTRY_CODE":"US","DECAY_DATE":null,"EPOCH":"2022-06-12T22:00:00.999936","ELEMENT_SET_NO":"999","EPHEMERIS_TYPE":"0","ECCENTRICITY":"0.00016500","NORAD_CAT_ID":"52106","SEMIMAJOR_AXIS":"6917.807","PERIAPSIS":"538.530","LAUNCH_DATE":"2022-03-19","OBJECT_ID":"2022-029U","TLE_LINE1":"1 52106U 22029U   22163.91667824 -.00051846  00000-0 -32609-2 0  9994","OBJECT_NAME":"STARLINK-3670","RCS_SIZE":"LARGE","REF_FRAME":"TEME","REV_AT_EPOCH":"130","TIME_SYSTEM":"UTC","INCLINATION":"53.2178","CLASSIFICATION_TYPE":"U","OBJECT_TYPE":"PAYLOAD","MEAN_MOTION_DOT":"-0.00051846","ARG_OF_PERICENTER":"69.0964"},{"GP_ID":"206017878","COUNTRY_CODE":"US","SITE":"AFETR","ELEMENT_SET_NO":"999","EPOCH":"2022-06-12T22:00:00.999936","DECAY_DATE":null,"FILE":"3493781","MEAN_ELEMENT_THEORY":"SGP4","TLE_LINE2":"2 52107  53.2176  90.3067 0001902  40.2852 112.5145 15.08837914  1308","CENTER_NAME":"EARTH","MEAN_MOTION_DDOT":"0.0000000000000","BSTAR":"-0.00012599000000","PERIOD":"95.438","MEAN_ANOMALY":"112.5145","RA_OF_ASC_NODE":"90.3067","APOAPSIS":"541.068","MEAN_MOTION":"15.08837914","REF_FRAME":"TEME","REV_AT_EPOCH":"130","TIME_SYSTEM":"UTC","INCLINATION":"53.2176","OBJECT_NAME":"STARLINK-3658","RCS_SIZE":"LARGE","CLASSIFICATION_TYPE":"U","OBJECT_TYPE":"PAYLOAD","MEAN_MOTION_DOT":"-0.00002293","ARG_OF_PERICENTER":"40.2852","NORAD_CAT_ID":"52107","EPHEMERIS_TYPE":"0","ECCENTRICITY":"0.00019020","PERIAPSIS":"538.436","LAUNCH_DATE":"2022-03-19","OBJECT_ID":"2022-029V","TLE_LINE1":"1 52107U 22029V   22163.91667824 -.00002293  00000-0 -12599-3 0  9994","SEMIMAJOR_AXIS":"6917.887"},{"SEMIMAJOR_AXIS":"6917.811","TLE_LINE1":"1 52108U 22029W   22163.91667824 -.00026538  00000-0 -16544-2 0  9996","LAUNCH_DATE":"2022-03-19","PERIAPSIS":"538.508","OBJECT_ID":"2022-029W","ECCENTRICITY":"0.00016880","EPHEMERIS_TYPE":"0","NORAD_CAT_ID":"52108","MEAN_MOTION_DOT":"-0.00026538","ARG_OF_PERICENTER":"46.3878","CLASSIFICATION_TYPE":"U","OBJECT_TYPE":"PAYLOAD","OBJECT_NAME":"STARLINK-3698","RCS_SIZE":"LARGE","INCLINATION":"53.2153","REF_FRAME":"TEME","TIME_SYSTEM":"UTC","REV_AT_EPOCH":"130","MEAN_MOTION":"15.08862714","RA_OF_ASC_NODE":"90.3164","APOAPSIS":"540.844","PERIOD":"95.436","MEAN_ANOMALY":"66.3963","BSTAR":"-0.00165440000000","CENTER_NAME":"EARTH","MEAN_MOTION_DDOT":"0.0000000000000","TLE_LINE2":"2 52108  53.2153  90.3164 0001688  46.3878  66.3963 15.08862714  1308","FILE":"3493781","MEAN_ELEMENT_THEORY":"SGP4","DECAY_DATE":null,"ELEMENT_SET_NO":"999","EPOCH":"2022-06-12T22:00:00.999936","SITE":"AFETR","GP_ID":"206017912","COUNTRY_CODE":"US"},{"ARG_OF_PERICENTER":"39.4226","MEAN_MOTION_DOT":"-0.00002766","OBJECT_TYPE":"PAYLOAD","CLASSIFICATION_TYPE":"U","RCS_SIZE":"LARGE","OBJECT_NAME":"STARLINK-3687","INCLINATION":"53.2176","REV_AT_EPOCH":"130","TIME_SYSTEM":"UTC","REF_FRAME":"TEME","SEMIMAJOR_AXIS":"6917.886","TLE_LINE1":"1 52110U 22029Y   22163.91667824 -.00002766  00000-0 -15576-3 0  9991","OBJECT_ID":"2022-029Y","LAUNCH_DATE":"2022-03-19","PERIAPSIS":"538.440","ECCENTRICITY":"0.00018950","EPHEMERIS_TYPE":"0","NORAD_CAT_ID":"52110","DECAY_DATE":null,"EPOCH":"2022-06-12T22:00:00.999936","ELEMENT_SET_NO":"999","SITE":"AFETR","COUNTRY_CODE":"US","GP_ID":"206017778","MEAN_MOTION":"15.08838153","APOAPSIS":"541.062","RA_OF_ASC_NODE":"90.3067","PERIOD":"95.438","MEAN_ANOMALY":"93.3770","BSTAR":"-0.00015576000000","MEAN_MOTION_DDOT":"0.0000000000000","CENTER_NAME":"EARTH","TLE_LINE2":"2 52110  53.2176  90.3067 0001895  39.4226  93.3770 15.08838153  1304","MEAN_ELEMENT_THEORY":"SGP4","FILE":"3493781"},{"SEMIMAJOR_AXIS":"6917.870","PERIAPSIS":"538.450","LAUNCH_DATE":"2022-03-19","OBJECT_ID":"2022-029Z","TLE_LINE1":"1 52111U 22029Z   22163.91667824 -.00011867  00000-0 -72861-3 0  9994","EPHEMERIS_TYPE":"0","ECCENTRICITY":"0.00018570","NORAD_CAT_ID":"52111","CLASSIFICATION_TYPE":"U","OBJECT_TYPE":"PAYLOAD","MEAN_MOTION_DOT":"-0.00011867","ARG_OF_PERICENTER":"43.1676","OBJECT_NAME":"STARLINK-3708","RCS_SIZE":"LARGE","REF_FRAME":"TEME","TIME_SYSTEM":"UTC","REV_AT_EPOCH":"130","INCLINATION":"53.2175","MEAN_MOTION":"15.08843534","RA_OF_ASC_NODE":"90.3068","APOAPSIS":"541.019","CENTER_NAME":"EARTH","MEAN_MOTION_DDOT":"0.0000000000000","MEAN_ANOMALY":"169.6298","PERIOD":"95.437","BSTAR":"-0.00072861000000","FILE":"3493781","MEAN_ELEMENT_THEORY":"SGP4","TLE_LINE2":"2 52111  53.2175  90.3068 0001857  43.1676 169.6298 15.08843534  1305","DECAY_DATE":null,"ELEMENT_SET_NO":"999","EPOCH":"2022-06-12T22:00:00.999936","SITE":"AFETR","GP_ID":"206017673","COUNTRY_CODE":"US"},{"MEAN_MOTION_DOT":"-0.00001914","ARG_OF_PERICENTER":"41.6795","CLASSIFICATION_TYPE":"U","OBJECT_TYPE":"PAYLOAD","INCLINATION":"53.2176","REF_FRAME":"TEME","TIME_SYSTEM":"UTC","REV_AT_EPOCH":"130","OBJECT_NAME":"STARLINK-3734","RCS_SIZE":"LARGE","TLE_LINE1":"1 52112U 22029AA  22163.91667824 -.00001914  00000-0 -10221-3 0  9999","LAUNCH_DATE":"2022-03-19","OBJECT_ID":"2022-029AA","PERIAPSIS":"538.454","SEMIMAJOR_AXIS":"6917.887","NORAD_CAT_ID":"52112","ECCENTRICITY":"0.00018770","EPHEMERIS_TYPE":"0","EPOCH":"2022-06-12T22:00:00.999936","ELEMENT_SET_NO":"999","DECAY_DATE":null,"COUNTRY_CODE":"US","GP_ID":"206018226","SITE":"AFETR","RA_OF_ASC_NODE":"90.3067","APOAPSIS":"541.051","MEAN_MOTION":"15.08837729","TLE_LINE2":"2 52112  53.2176  90.3067 0001877  41.6795 131.1202 15.08837729  1301","FILE":"3493781","MEAN_ELEMENT_THEORY":"SGP4","MEAN_ANOMALY":"131.1202","PERIOD":"95.438","BSTAR":"-0.00010221000000","CENTER_NAME":"EARTH","MEAN_MOTION_DDOT":"0.0000000000000"},{"MEAN_MOTION":"15.09233190","APOAPSIS":"539.776","RA_OF_ASC_NODE":"90.3072","MEAN_MOTION_DDOT":"0.0000000000000","CENTER_NAME":"EARTH","PERIOD":"95.413","MEAN_ANOMALY":"206.7825","BSTAR":"-0.03390200000000","MEAN_ELEMENT_THEORY":"SGP4","FILE":"3493781","TLE_LINE2":"2 52113  53.2174  90.3072 0001782  45.7694 206.7825 15.09233190  1307","DECAY_DATE":null,"EPOCH":"2022-06-12T22:00:00.999936","ELEMENT_SET_NO":"999","SITE":"AFETR","GP_ID":"206017568","COUNTRY_CODE":"US","SEMIMAJOR_AXIS":"6916.679","OBJECT_ID":"2022-029AB","LAUNCH_DATE":"2022-03-19","PERIAPSIS":"537.311","TLE_LINE1":"1 52113U 22029AB  22163.91667824 -.00513640  00000-0 -33902-1 0  9993","EPHEMERIS_TYPE":"0","ECCENTRICITY":"0.00017820","NORAD_CAT_ID":"52113","OBJECT_TYPE":"PAYLOAD","CLASSIFICATION_TYPE":"U","ARG_OF_PERICENTER":"45.7694","MEAN_MOTION_DOT":"-0.00513640","RCS_SIZE":"LARGE","OBJECT_NAME":"STARLINK-3736","TIME_SYSTEM":"UTC","REV_AT_EPOCH":"130","REF_FRAME":"TEME","INCLINATION":"53.2174"}];
